NORAD_CAT_ID,OBJECT_NAME,OBJECT_TYPE,EPOCH,MEAN_MOTION,ECCENTRICITY,INCLINATION,RA_OF_ASC_NODE,ARG_OF_PERICENTER,MEAN_ANOMALY,BSTAR,MEAN_MOTION_DOT,MEAN_MOTION_DDOT,TLE_LINE0,TLE_LINE1,TLE_LINE2,SEMIMAJOR_AXIS,PERIOD,APOGEE,PERIGEE,DECAYED
53868.0,STARLINK-4789,PAYLOAD,2022-10-14 14:00:01,15.73101618,0.0001748,53.2169,132.346,116.5945,245.6332,0.001157,0.00164278,0.0,0 STARLINK-4789,1 53868U 22114BC  22287.58334491  .00164278  00000-0  11570-2 0  9992,2 53868  53.2169 132.3460 0001748 116.5945 245.6332 15.73101618  1300,6728.176,91.539,351.217,348.865,0.0
53868.0,STARLINK-4789,PAYLOAD,2022-10-14 16:00:00,15.7319367,0.0001802,53.2172,131.9346,116.2606,358.1528,0.00013236,0.0001799,0.0,0 STARLINK-4789,1 53868U 22114BC  22287.66667824  .00017990  00000-0  13236-3 0  9990,2 53868  53.2172 131.9346 0001802 116.2606 358.1528 15.73193670  4617,6727.913000000001,91.534,350.991,348.566,0.0
53868.0,STARLINK-4789,PAYLOAD,2022-10-14 22:00:00,15.73205448,0.0001811999999999,53.2176,130.6997,112.3608,338.747,-1.1596e-05,-2.248e-05,0.0,0 STARLINK-4789,1 53868U 22114BC  22287.91667824 -.00002248  00000-0 -11596-4 0  9998,2 53868  53.2176 130.6997 0001812 112.3608 338.7470 15.73205448  1309,6727.88,91.533,350.964,348.526,0.0
53868.0,STARLINK-4789,PAYLOAD,2022-10-15 14:00:01,15.73229174,0.0001354,53.2155,127.3929,127.5451,141.468,-0.00013338,-0.0001932,0.0,0 STARLINK-4789,1 53868U 22114BC  22288.58334491 -.00019320  00000-0 -13338-3 0  9997,2 53868  53.2155 127.3929 0001354 127.5451 141.4680 15.73229174  1303,6727.812,91.531,350.588,348.766,0.0
53868.0,STARLINK-4789,PAYLOAD,2022-10-15 22:00:01,15.7320525,0.0001426999999999,53.2174,125.7511,142.2792,215.6973,-1.3147e-05,-2.465e-05,0.0,0 STARLINK-4789,1 53868U 22114BC  22288.91668981 -.00002465  00000-0 -13147-4 0  9999,2 53868  53.2174 125.7511 0001427 142.2792 215.6973 15.73205250  4802,6727.88,91.533,350.705,348.785,0.0
53868.0,STARLINK-4789,PAYLOAD,2022-10-16 14:00:01,15.73175958,0.0001214,53.2158,122.4445,124.544,51.223,0.00016264,0.00022242,0.0,0 STARLINK-4789,1 53868U 22114BC  22289.58334491  .00022242  00000-0  16264-3 0  9994,2 53868  53.2158 122.4445 0001214 124.5440  51.2230 15.73175958  1304,6727.964,91.535,350.645,349.01199999999994,0.0
53868.0,STARLINK-4789,PAYLOAD,2022-10-16 22:00:00,15.73173766,0.0001134,53.2161,120.7984,106.7631,157.91299999999995,0.00069854,0.0009846,0.0,0 STARLINK-4789,1 53868U 22114BC  22289.91667824  .00098460  00000-0  69854-3 0  9998,2 53868  53.2161 120.7984 0001134 106.7631 157.9130 15.73173766  1300,6727.97,91.535,350.598,349.07199999999995,0.0
53868.0,STARLINK-4789,PAYLOAD,2022-10-17 14:00:01,15.73195456,0.0001164,53.2159,117.4969,122.0124,320.5746,0.00046476,0.000651,0.0,0 STARLINK-4789,1 53868U 22114BC  22290.58334491  .00065100  00000-0  46476-3 0  9994,2 53868  53.2159 117.4969 0001164 122.0124 320.5746 15.73195456  1305,6727.908,91.533,350.556,348.99,0.0
53868.0,STARLINK-4789,PAYLOAD,2022-10-17 22:00:00,15.73229027,0.0001102,53.2156,115.8489,102.7405,68.7593,-0.00028062,-0.00039865,0.0,0 STARLINK-4789,1 53868U 22114BC  22290.91667824 -.00039865  00000-0 -28062-3 0  9992,2 53868  53.2156 115.8489 0001102 102.7405  68.7593 15.73229027  1303,6727.812,91.531,350.4190000000001,348.936,0.0
53868.0,STARLINK-4789,PAYLOAD,2022-10-18 00:00:00,15.73228853,0.0001079,53.2153,115.4365,101.6644,182.0745,-0.00042075,-0.00059325,0.0,0 STARLINK-4789,1 53868U 22114BC  22291.00001157 -.00059325  00000-0 -42075-3 0  9997,2 53868  53.2153 115.4365 0001079 101.6644 182.0745 15.73228853  5135,6727.813,91.532,350.404,348.952,0.0
53868.0,STARLINK-4789,PAYLOAD,2022-10-18 14:00:01,15.73206427,0.000133,53.2159,112.548,108.5718,240.7641,0.00011614,0.00015714,0.0,0 STARLINK-4789,1 53868U 22114BC  22291.58334491  .00015714  00000-0  11614-3 0  9997,2 53868  53.2159 112.5480 0001330 108.5718 240.7641 15.73206427  5225,6727.877,91.533,350.63699999999994,348.847,0.0
53868.0,STARLINK-4789,PAYLOAD,2022-10-18 22:00:00,15.73202009,0.0001328,53.2176,110.9051,109.0107,329.3099,3.0917e-05,3.721e-05,0.0,0 STARLINK-4789,1 53868U 22114BC  22291.91667824  .00003721  00000-0  30917-4 0  9996,2 53868  53.2176 110.9051 0001328 109.0107 329.3099 15.73202009  1303,6727.889,91.533,350.648,348.861,0.0
53868.0,STARLINK-4789,PAYLOAD,2022-10-19 14:00:01,15.73214122,0.0001167,53.2155,107.5999,103.2403,152.8886,0.00027496,0.00038167,0.0,0 STARLINK-4789,1 53868U 22114BC  22292.58334491  .00038167  00000-0  27496-3 0  9990,2 53868  53.2155 107.5999 0001167 103.2403 152.8886 15.73214122  1301,6727.855,91.532,350.505,348.935,0.0
53868.0,STARLINK-4789,PAYLOAD,2022-10-19 22:00:00,15.73272822,0.0001198,53.2163,105.9548,100.1822,244.9261,-0.00091195,-0.00127084,0.0,0 STARLINK-4789,1 53868U 22114BC  22292.91667824 -.00127084  00000-0 -91195-3 0  9992,2 53868  53.2163 105.9548 0001198 100.1822 244.9261 15.73272822  5436,6727.688,91.529,350.3590000000001,348.747,0.0
53868.0,STARLINK-4789,PAYLOAD,2022-10-20 06:00:00,15.73223617,9.32e-05,53.2152,104.3005,99.7671,334.2932,-0.00015647,-0.00022542,0.0,0 STARLINK-4789,1 53868U 22114BC  22293.25001157 -.00022542  00000-0 -15647-3 0  9992,2 53868  53.2152 104.3005 0000932  99.7671 334.2932 15.73223617  5486,6727.828,91.532,350.32,349.066,0.0
53868.0,STARLINK-4789,PAYLOAD,2022-10-20 14:00:01,15.73242421,0.0001222,53.2154,102.651,94.6734,68.3112,-0.00056718,-0.00079614,0.0,0 STARLINK-4789,1 53868U 22114BC  22293.58334491 -.00079614  00000-0 -56718-3 0  9994,2 53868  53.2154 102.6510 0001222  94.6734  68.3112 15.73242421  1303,6727.774,91.531,350.461,348.81699999999995,0.0
53868.0,STARLINK-4789,PAYLOAD,2022-10-20 22:00:00,15.73162173,0.0001233,53.2157,101.0045,79.5858,172.347,0.00066121,0.00093058,0.0,0 STARLINK-4789,1 53868U 22114BC  22293.91667824  .00093058  00000-0  66121-3 0  9995,2 53868  53.2157 101.0045 0001233  79.5858 172.3470 15.73162173  1301,6728.003000000002,91.535,350.6980000000001,349.038,0.0
53868.0,STARLINK-4789,PAYLOAD,2022-10-21 14:00:01,15.73243861,0.000104,53.2157,97.7033,85.6438,344.1556,0.00010409,0.0001404,0.0,0 STARLINK-4789,1 53868U 22114BC  22294.58334491  .00014040  00000-0  10409-3 0  9992,2 53868  53.2157  97.7033 0001040  85.6438 344.1556 15.73243861  5691,6727.77,91.531,350.335,348.935,0.0
53868.0,STARLINK-4789,PAYLOAD,2022-10-21 22:00:00,15.7324184,0.0001071,53.2145,96.0544,69.6731,89.1075,-0.00032917,-0.00046642,0.0,0 STARLINK-4789,1 53868U 22114BC  22294.91667824 -.00046642  00000-0 -32917-3 0  9991,2 53868  53.2145  96.0544 0001071  69.6731  89.1075 15.73241840  5753,6727.776,91.531,350.361,348.92,0.0
53868.0,STARLINK-4789,PAYLOAD,2022-10-22 14:00:01,15.73221701,9.74e-05,53.2148,92.7534,73.2108,263.4448,-0.00061177,-0.00085684,0.0,0 STARLINK-4789,1 53868U 22114BC  22295.58334491 -.00085684  00000-0 -61177-3 0  9995,2 53868  53.2148  92.7534 0000974  73.2108 263.4448 15.73221701  1300,6727.833000000001,91.532,350.35400000000016,349.043,0.0
53868.0,STARLINK-4789,PAYLOAD,2022-10-22 22:00:00,15.73097984,9.15e-05,53.2147,91.1052,52.8175,12.7908,0.00063856,0.00089564,0.0,0 STARLINK-4789,1 53868U 22114BC  22295.91667824  .00089564  00000-0  63856-3 0  9996,2 53868  53.2147  91.1052 0000915  52.8175  12.7908 15.73097984  1309,6728.186,91.539,350.667,349.435,0.0
53868.0,STARLINK-4789,PAYLOAD,2022-10-23 00:00:02,15.73076719,9.18e-05,53.2146,90.6923,49.1658,128.7245,0.0011798,0.0016741,0.0,0 STARLINK-4789,1 53868U 22114BC  22296.00002315  .00167410  00000-0  11798-2 0  9999,2 53868  53.2146  90.6923 0000918  49.1658 128.7245 15.73076719  5924,6728.246999999999,91.54,350.72900000000016,349.494,0.0
53868.0,STARLINK-4789,PAYLOAD,2022-10-23 08:00:01,15.73217903,8.690000000000001e-05,53.2147,89.041,62.6771,204.075,0.0012048,0.00172106,0.0,0 STARLINK-4789,1 53868U 22114BC  22296.33335648  .00172106  00000-0  12048-2 0  9990,2 53868  53.2147  89.0410 0000869  62.6771 204.0750 15.73217903  5975,6727.844,91.532,350.2940000000001,349.124,0.0
53868.0,STARLINK-4789,PAYLOAD,2022-10-23 14:00:01,15.73329827,9.96e-05,53.2147,87.805,60.8737,182.5401,-0.000526,-0.00074199,0.0,0 STARLINK-4789,1 53868U 22114BC  22296.58334491 -.00074199  00000-0 -52600-3 0  9996,2 53868  53.2147  87.8050 0000996  60.8737 182.5401 15.73329827  6012,6727.525,91.526,350.06,348.72,0.0
53868.0,STARLINK-4789,PAYLOAD,2022-10-23 22:00:00,15.73277633,0.0001136,53.2142,86.1562,47.8647,284.6020000000001,-0.00052279,-0.00073593,0.0,0 STARLINK-4789,1 53868U 22114BC  22296.91667824 -.00073593  00000-0 -52279-3 0  9991,2 53868  53.2142  86.1562 0001136  47.8647 284.6020 15.73277633  1304,6727.674,91.529,350.30300000000005,348.775,0.0
53868.0,STARLINK-4789,PAYLOAD,2022-10-24 14:00:01,15.73131811,0.0001147,53.2148,82.8558,52.8126,97.5408,-0.00056513,-0.0007896,0.0,0 STARLINK-4789,1 53868U 22114BC  22297.58334491 -.00078960  00000-0 -56513-3 0  9994,2 53868  53.2148  82.8558 0001147  52.8126  97.5408 15.73131811  1306,6728.09,91.537,350.726,349.18300000000005,0.0
53868.0,STARLINK-4789,PAYLOAD,2022-10-24 22:00:00,15.73068884,0.0001415,53.2147,81.2074,49.4912,189.6755,0.0013698,0.00195053,0.0,0 STARLINK-4789,1 53868U 22114BC  22297.91667824  .00195053  00000-0  13698-2 0  9997,2 53868  53.2147  81.2074 0001415  49.4912 189.6755 15.73068884  1301,6728.269,91.541,351.086,349.182,0.0
53868.0,STARLINK-4789,PAYLOAD,2022-10-25 00:00:00,15.73137735,0.0001447,53.2148,80.7946,50.8653,300.4893,0.00072474,0.00102063,0.0,0 STARLINK-4789,1 53868U 22114BC  22298.00001157  .00102063  00000-0  72474-3 0  9996,2 53868  53.2148  80.7946 0001447  50.8653 300.4893 15.73137735  6232,6728.073,91.537,350.911,348.964,0.0
53868.0,STARLINK-4789,PAYLOAD,2022-10-25 14:00:01,15.73282236,0.0001499,53.215,77.9078,52.7026,4.2468,-0.00077384,-0.0010822,0.0,0 STARLINK-4789,1 53868U 22114BC  22298.58334491 -.00108220  00000-0 -77384-3 0  9997,2 53868  53.2150  77.9078 0001499  52.7026   4.2468 15.73282236  6325,6727.661,91.528,350.534,348.517,0.0
